      2.10          N: GNSS NAV DATA                        RINEX VERSION / TYPE
fic2rin                                 07/08/2019 00:19:33 PGM / RUN BY / DATE
                                                            END OF HEADER
11 19  7  7  8  0  0.0-5.671754479408e-04 9.208633855451e-12 0.000000000000e+00
    7.100000000000e+01 5.125000000000e+01 5.646306619906e-09 1.906196419795e+00
    2.525746822357e-06 1.672469766345e-02 2.278015017509e-06 5.153714324951e+03
    2.880000000000e+04 4.172325134277e-07 2.100901858698e+00 4.470348358154e-08
    9.098487448408e-01 3.034062500000e+02 1.905040203954e+00-8.709648506106e-09
    1.546492989069e-10 1.000000000000e+00 2.061000000000e+03 0.000000000000e+00
    2.400000000000e+00 0.000000000000e+00-1.257285475731e-08 7.100000000000e+01
    2.160000000000e+04 4.000000000000e+00
30 19  7  7  8  0  0.0-1.382818445563e-04-7.503331289627e-12 0.000000000000e+00
    8.200000000000e+01 1.440625000000e+01 5.607376426879e-09 2.001280020912e+00
    8.493661880493e-07 4.142709192820e-03 5.593523383141e-06 5.153777551651e+03
    2.880000000000e+04-5.774199962616e-08-5.513349631199e-01 1.043081283569e-07
    9.406559943493e-01 2.634062500000e+02-2.938233334492e+00-8.613215917873e-09
   -9.071806448581e-11 1.000000000000e+00 2.061000000000e+03 0.000000000000e+00
    2.400000000000e+00 0.000000000000e+00 3.725290298462e-09 8.200000000000e+01
    2.160000000000e+04 4.000000000000e+00
32 19  7  7  8  0  0.0-1.292116940022e-05 1.546140993014e-11 0.000000000000e+00
    5.400000000000e+01 1.409375000000e+01 4.687695261324e-09-8.168733520425e-01
    8.624047040939e-07 3.171397489496e-03 9.978190064430e-06 5.153606327057e+03
    2.880000000000e+04 2.048909664154e-08-1.648023264567e+00 1.117587089539e-08
    9.563590989152e-01 1.855312500000e+02-2.480772207994e+00-8.048549540109e-09
    4.610906348471e-10 1.000000000000e+00 2.061000000000e+03 0.000000000000e+00
    2.400000000000e+00 0.000000000000e+00 4.656612873077e-10 5.400000000000e+01
    2.160000000000e+04 4.000000000000e+00
31 19  7  7  8  0  0.0 2.600112929940e-05-2.614797267597e-12 0.000000000000e+00
    5.900000000000e+01 1.512500000000e+01 5.111998649549e-09 1.685225713124e+00
    1.052394509315e-06 9.222533670254e-03 5.669891834259e-06 5.153639223099e+03
    2.880000000000e+04 1.285225152969e-07-5.646883272040e-01 1.862645149231e-07
    9.597457367137e-01 2.693125000000e+02 9.007607934455e-03-8.413564744457e-09
   -2.028655930234e-10 1.000000000000e+00 2.061000000000e+03 0.000000000000e+00
    2.400000000000e+00 0.000000000000e+00-1.350417733192e-08 5.900000000000e+01
    2.160000000000e+04 4.000000000000e+00
29 19  7  7  8  0  0.0 1.577432267368e-04-9.663381206337e-12 0.000000000000e+00
    7.900000000000e+01 7.081250000000e+01 3.907662769839e-09-1.046758089630e+00
    3.684312105179e-06 1.188725000247e-03 8.204951882362e-06 5.153729928970e+03
    2.880000000000e+04 5.587935447693e-09 1.566304087195e+00 1.676380634308e-08
    9.854595882331e-01 2.339687500000e+02 1.816594748691e+00-7.857112994580e-09
    1.646497154644e-10 1.000000000000e+00 2.061000000000e+03 0.000000000000e+00
    2.400000000000e+00 0.000000000000e+00-9.778887033463e-09 7.900000000000e+01
    2.160000000000e+04 4.000000000000e+00
17 19  7  7  8  0  0.0 8.440576493740e-05 6.593836587854e-12 0.000000000000e+00
    4.200000000000e+01 9.328125000000e+01 3.893733618206e-09-1.575543623236e+00
    4.872679710388e-06 1.286909182090e-02 8.428469300270e-06 5.153768398285e+03
    2.880000000000e+04 1.937150955200e-07 1.555097334492e+00 3.315508365631e-07
    9.839758455150e-01 2.315000000000e+02-1.711263172363e+00-7.891757294797e-09
    1.107188976008e-10 1.000000000000e+00 2.061000000000e+03 0.000000000000e+00
    2.400000000000e+00 0.000000000000e+00-1.117587089539e-08 4.200000000000e+01
    2.160000000000e+04 4.000000000000e+00
12 19  7  7  8  0  0.0 2.262229099870e-04-3.637978807092e-12 0.000000000000e+00
    6.200000000000e+01-3.500000000000e+00 3.998380834325e-09 1.268359963529e+00
   -2.365559339523e-07 7.576116360724e-03 1.035258173943e-05 5.153618989944e+03
    2.880000000000e+04-1.490116119385e-07 5.214505852414e-01-3.725290298462e-08
    9.825726261967e-01 1.936875000000e+02 1.102274237621e+00-7.848184051225e-09
   -5.839528954106e-10 1.000000000000e+00 2.061000000000e+03 0.000000000000e+00
    2.400000000000e+00 0.000000000000e+00-1.210719347000e-08 6.200000000000e+01
    2.160000000000e+04 4.000000000000e+00
 9 19  7  7  8  0  0.0 3.761970438063e-04-8.185452315956e-12 0.000000000000e+00
    6.400000000000e+01 2.453125000000e+01 4.812343310558e-09-1.113738996408e+00
    1.277774572372e-06 1.208828296512e-03 1.101568341255e-05 5.153645498276e+03
    2.880000000000e+04-5.587935447693e-09-1.654917742927e+00 5.215406417847e-08
    9.521188498804e-01 1.677187500000e+02 1.726966206709e+00-8.108194881719e-09
    5.189501877869e-10 1.000000000000e+00 2.061000000000e+03 0.000000000000e+00
    2.400000000000e+00 0.000000000000e+00 1.396983861923e-09 6.400000000000e+01
    2.160000000000e+04 4.000000000000e+00
 9 19  7  7  7 59 44.0 3.761965781450e-04-8.185452315956e-12 0.000000000000e+00
    2.700000000000e+01 2.453125000000e+01 4.812343310558e-09-1.116074549511e+00
    1.277774572372e-06 1.208831788972e-03 1.101568341255e-05 5.153645490646e+03
    2.878400000000e+04-5.587935447693e-09-1.654917595172e+00 5.215406417847e-08
    9.521188454916e-01 1.677187500000e+02 1.726968044134e+00-8.108194881719e-09
    5.189501877869e-10 1.000000000000e+00 2.061000000000e+03 0.000000000000e+00
    2.400000000000e+00 0.000000000000e+00 1.396983861923e-09 2.700000000000e+01
    2.547000000000e+04 4.000000000000e+00
 3 19  7  7  7 59 44.0 1.824037171900e-04-1.932676241267e-12 0.000000000000e+00
    4.000000000000e+00-9.193750000000e+01 4.335180577672e-09 1.639857893681e+00
   -4.885718226433e-06 2.323714201339e-03 9.367242455482e-06 5.153760766983e+03
    2.878400000000e+04-3.911554813385e-08-2.686973747242e+00 8.195638656616e-08
    9.634578181939e-01 1.967187500000e+02 6.263006011225e-01-8.042120700893e-09
   -6.321691895271e-11 1.000000000000e+00 2.061000000000e+03 0.000000000000e+00
    2.400000000000e+00 0.000000000000e+00 1.862645149231e-09 4.000000000000e+00
    2.562000000000e+04 4.000000000000e+00
 3 19  7  7  9 59 44.0 1.823897473514e-04-1.932676241267e-12 0.000000000000e+00
    2.200000000000e+01-9.178125000000e+01 4.205532320159e-09 2.689742615216e+00
   -4.734843969345e-06 2.322862623259e-03 9.069219231606e-06 5.153762535095e+03
    3.598400000000e+04-1.490116119385e-08-2.687031545672e+00-5.587935447693e-09
    9.634578620815e-01 2.056875000000e+02 6.265418421655e-01-7.956402844686e-09
   -3.178703834345e-11 1.000000000000e+00 2.061000000000e+03 0.000000000000e+00
    2.400000000000e+00 0.000000000000e+00 1.862645149231e-09 2.200000000000e+01
    2.880000000000e+04 4.000000000000e+00
 9 19  7  7  9 59 44.0 3.761379048228e-04-8.185452315956e-12 0.000000000000e+00
    2.800000000000e+01 2.400000000000e+01 4.717339353262e-09-6.596264996342e-02
    9.313225746155e-07 1.208006404340e-03 1.034885644913e-05 5.153644088745e+03
    3.598400000000e+04-6.519258022308e-08-1.654975617429e+00 5.587935447693e-09
    9.521224910835e-01 1.754062500000e+02 1.727055854329e+00-8.086765417668e-09
    4.650193699233e-10 1.000000000000e+00 2.061000000000e+03 0.000000000000e+00
    2.400000000000e+00 0.000000000000e+00 1.396983861923e-09 2.800000000000e+01
    2.880000000000e+04 4.000000000000e+00
 2 19  7  7 10  0  0.0-2.545895986259e-04-8.753886504564e-12 0.000000000000e+00
    5.500000000000e+01-5.625000000000e+00 4.755198073087e-09-2.331658987002e+00
   -1.564621925354e-07 1.892106782179e-02 2.400949597359e-06 5.153740659714e+03
    3.600000000000e+04 2.514570951462e-07 2.484804367173e+00-7.078051567078e-08
    9.553691056780e-01 3.299375000000e+02-1.730896416589e+00-8.203555996750e-09
    1.189335254873e-10 1.000000000000e+00 2.061000000000e+03 0.000000000000e+00
    2.400000000000e+00 0.000000000000e+00-2.048909664154e-08 5.500000000000e+01
    2.880000000000e+04 4.000000000000e+00
 1 19  7  7 10  0  0.0-6.066774949431e-05-1.034550223267e-11 0.000000000000e+00
    3.100000000000e+01-2.281250000000e+01 4.261248926693e-09-2.606886615908e+00
   -1.100823283195e-06 9.022815153003e-03 2.996996045113e-06 5.153651531219e+03
    3.600000000000e+04 6.332993507385e-08 2.554378281617e+00-8.009374141693e-08
    9.763101460021e-01 3.303437500000e+02 7.307244938368e-01-8.110694985859e-09
    5.857386840816e-11 1.000000000000e+00 2.061000000000e+03 0.000000000000e+00
    2.400000000000e+00 0.000000000000e+00 5.587935447693e-09 3.100000000000e+01
    2.880000000000e+04 4.000000000000e+00
 7 19  7  7 10  0  0.0-5.943048745394e-05-7.730704965070e-12 0.000000000000e+00
    6.200000000000e+01 1.337500000000e+01 5.092354974168e-09 3.066888090873e+00
    6.053596735001e-07 1.298603066243e-02 5.625188350677e-06 5.153737571716e+03
    3.600000000000e+04-6.891787052155e-08-5.789634671923e-01-2.048909664154e-07
    9.552030615502e-01 2.709375000000e+02-2.450726133780e+00-8.156768333570e-09
   -4.643050544549e-11 1.000000000000e+00 2.061000000000e+03 0.000000000000e+00
    2.400000000000e+00 0.000000000000e+00-1.117587089539e-08 6.200000000000e+01
    2.880000000000e+04 4.000000000000e+00
22 19  7  7 10  0  0.0-7.277172990143e-04-5.229594535194e-12 0.000000000000e+00
    8.000000000000e+00-8.987500000000e+01 5.077711507066e-09-1.289322934458e+00
   -4.576519131660e-06 7.145007606596e-03 8.298084139824e-06 5.153771020889e+03
    3.600000000000e+04-1.378357410431e-07-2.761582980364e+00 9.685754776001e-08
    9.280351879563e-01 2.037187500000e+02-1.316207044369e+00-8.499996916133e-09
   -1.571494030463e-11 1.000000000000e+00 2.061000000000e+03 0.000000000000e+00
    2.400000000000e+00 0.000000000000e+00-1.816079020500e-08 8.000000000000e+00
    2.880000000000e+04 4.000000000000e+00
